NORAD_CAT_ID,OBJECT_NAME,OBJECT_TYPE,EPOCH,MEAN_MOTION,ECCENTRICITY,INCLINATION,RA_OF_ASC_NODE,ARG_OF_PERICENTER,MEAN_ANOMALY,BSTAR,MEAN_MOTION_DOT,MEAN_MOTION_DDOT,TLE_LINE0,TLE_LINE1,TLE_LINE2,SEMIMAJOR_AXIS,PERIOD,APOGEE,PERIGEE,DECAYED
54059.0,STARLINK-5173,PAYLOAD,2023-08-10 08:39:41,15.08854439,0.0001642,53.2153,254.4493,106.5945,253.5228,-0.00023379,-4.008e-05,0.0,0 STARLINK-5173,1 54059U 22136J   23222.36089787 -.00004008  00000-0 -23379-3 0  9997,2 54059  53.2153 254.4493 0001642 106.5945 253.5228 15.08854439 45067,6917.836,95.437,540.837,538.565,0.0
54059.0,STARLINK-5173,PAYLOAD,2023-08-11 02:08:56,15.08813695,0.0001216,53.2142,251.1771,107.8052,252.3073,0.00046653,7.139e-05,0.0,0 STARLINK-5173,1 54059U 22136J   23223.08953798  .00007139  00000-0  46653-3 0  9995,2 54059  53.2142 251.1771 0001216 107.8052 252.3073 15.08813695 45174,6917.961,95.439,540.667,538.985,0.0
54059.0,STARLINK-5173,PAYLOAD,2023-08-12 08:21:15,15.08847718,0.0001055,53.2151,245.5276,104.8834,255.2275,8.285e-05,1.031e-05,0.0,0 STARLINK-5173,1 54059U 22136J   23224.34809877  .00001031  00000-0  82850-4 0  9998,2 54059  53.2151 245.5276 0001055 104.8834 255.2275 15.08847718 45367,6917.857,95.437,540.452,538.992,0.0
54059.0,STARLINK-5173,PAYLOAD,2023-08-13 09:47:26,15.08840909,0.0001176,53.216,240.7691,107.6106,252.5015,4.8651e-05,4.87e-06,0.0,0 STARLINK-5173,1 54059U 22136J   23225.40794006  .00000487  00000-0  48651-4 0  9998,2 54059  53.2160 240.7691 0001176 107.6106 252.5015 15.08840909 45527,6917.878,95.437,540.556,538.929,0.0
54059.0,STARLINK-5173,PAYLOAD,2023-08-14 17:35:08,15.08840673,0.0001167,53.2162,234.8232,95.121,264.9915,4.3284e-06,-2.19e-06,0.0,0 STARLINK-5173,1 54059U 22136J   23226.73273904 -.00000219  00000-0  43284-5 0  9996,2 54059  53.2162 234.8232 0001167  95.1210 264.9915 15.08840673 45727,6917.878,95.438,540.551,538.936,0.0
54059.0,STARLINK-5173,PAYLOAD,2023-08-16 01:22:51,15.08836462,0.0001141,53.216,228.8743,85.9665,274.1458,2.441e-05,1.01e-06,0.0,0 STARLINK-5173,1 54059U 22136J   23228.05754087  .00000101  00000-0  24410-4 0  9997,2 54059  53.2160 228.8743 0001141  85.9665 274.1458 15.08836462 45926,6917.891,95.438,540.546,538.967,0.0
54059.0,STARLINK-5173,PAYLOAD,2023-08-17 09:10:33,15.08843236,0.0001154,53.2158,222.9275,85.4716,274.6408,3.302e-05,2.38e-06,0.0,0 STARLINK-5173,1 54059U 22136J   23229.38233672  .00000238  00000-0  33020-4 0  9994,2 54059  53.2158 222.9275 0001154  85.4716 274.6408 15.08843236 46124,6917.87,95.437,540.534,538.937,0.0
54059.0,STARLINK-5173,PAYLOAD,2023-08-18 02:39:48,15.08836016,0.0001169,53.2158,219.6565,85.6237,274.4889,3.468e-05,2.64e-06,0.0,0 STARLINK-5173,1 54059U 22136J   23230.11098097  .00000264  00000-0  34680-4 0  9999,2 54059  53.2158 219.6565 0001169  85.6237 274.4889 15.08836016 46236,6917.893,95.438,540.566,538.949,0.0
54059.0,STARLINK-5173,PAYLOAD,2023-08-19 04:05:58,15.08838625,0.0001271,53.2161,214.8972,95.4667,264.647,1.3314e-05,-7.6e-07,0.0,0 STARLINK-5173,1 54059U 22136J   23231.17082041 -.00000076  00000-0  13314-4 0  9991,2 54059  53.2161 214.8972 0001271  95.4667 264.6470 15.08838625 46391,6917.885,95.438,540.629,538.87,0.0
54059.0,STARLINK-5173,PAYLOAD,2023-08-20 07:07:32,15.08837331,0.0001343,53.217,209.8416,99.7067,260.4077,2.87e-05,1.69e-06,0.0,0 STARLINK-5173,1 54059U 22136J   23232.29690196  .00000169  00000-0  28700-4 0  9998,2 54059  53.2170 209.8416 0001343  99.7067 260.4077 15.08837331 46568,6917.889,95.438,540.683,538.824,0.0
54059.0,STARLINK-5173,PAYLOAD,2023-08-21 10:09:05,15.08842866,0.0001293,53.2166,204.7885,88.1361,271.9779,3.1518e-05,2.14e-06,0.0,0 STARLINK-5173,1 54059U 22136J   23233.42298154  .00000214  00000-0  31518-4 0  9994,2 54059  53.2166 204.7885 0001293  88.1361 271.9779 15.08842866 46734,6917.872,95.437,540.631,538.842,0.0
54059.0,STARLINK-5173,PAYLOAD,2023-08-22 03:38:20,15.08834268,0.00014,53.2167,201.5174,95.5382,264.577,2.9973e-05,1.89e-06,0.0,0 STARLINK-5173,1 54059U 22136J   23234.15162967  .00000189  00000-0  29973-4 0  9990,2 54059  53.2167 201.5174 0001400  95.5382 264.5770 15.08834268 46844,6917.898,95.438,540.731,538.794,0.0
54059.0,STARLINK-5173,PAYLOAD,2023-08-22 08:24:29,15.08841438,0.0001422,53.2169,200.6254,91.2802,268.8353,8.4481e-05,1.057e-05,0.0,0 STARLINK-5173,1 54059U 22136J   23234.35034406  .00001057  00000-0  84481-4 0  9998,2 54059  53.2169 200.6254 0001422  91.2802 268.8353 15.08841438 46873,6917.876,95.437,540.725,538.757,0.0
54059.0,STARLINK-5173,PAYLOAD,2023-08-23 01:53:44,15.08835517,0.0001472,53.2174,197.3545,88.7747,271.3414,-5.8271e-06,-3.81e-06,0.0,0 STARLINK-5173,1 54059U 22136J   23235.07899273 -.00000381  00000-0 -58271-5 0  9999,2 54059  53.2174 197.3545 0001472  88.7747 271.3414 15.08835517 46988,6917.894,95.438,540.777,538.741,0.0
54059.0,STARLINK-5173,PAYLOAD,2023-08-23 09:50:40,15.0884205,0.0001399,53.2168,195.8672,90.0731,270.0422,4.8167e-05,4.79e-06,0.0,0 STARLINK-5173,1 54059U 22136J   23235.41018704  .00000479  00000-0  48167-4 0  9997,2 54059  53.2168 195.8672 0001399  90.0731 270.0422 15.08842050 47034,6917.874,95.437,540.707,538.771,0.0
54059.0,STARLINK-5173,PAYLOAD,2023-08-24 06:30:41,15.08841087,0.0001405,53.2168,191.9985,95.0232,265.092,2.9987e-05,1.89e-06,0.0,0 STARLINK-5173,1 54059U 22136J   23236.27130990  .00000189  00000-0  29987-4 0  9991,2 54059  53.2168 191.9985 0001405  95.0232 265.0920 15.08841087 46683,6917.877,95.437,540.714,538.77,0.0
54059.0,STARLINK-5173,PAYLOAD,2023-08-25 01:35:18,15.08847379,0.0001381,53.2165,188.4316,96.4416,263.6734,9.1195e-05,1.164e-05,0.0,0 STARLINK-5173,1 54059U 22136J   23237.06618315  .00001164  00000-0  91195-4 0  9995,2 54059  53.2165 188.4316 0001381  96.4416 263.6734 15.08847379 47285,6917.858,95.437,540.678,538.767,0.0
54059.0,STARLINK-5173,PAYLOAD,2023-08-25 06:21:27,15.08851537,0.0001385,53.2165,187.5388,99.5146,260.6003,0.00012435,1.692e-05,0.0,0 STARLINK-5173,1 54059U 22136J   23237.26489835  .00001692  00000-0  12435-3 0  9995,2 54059  53.2165 187.5388 0001385  99.5146 260.6003 15.08851537 46839,6917.845,95.437,540.668,538.752,0.0
54059.0,STARLINK-5173,PAYLOAD,2023-08-25 23:50:42,15.08842346,0.0001673,53.2179,184.2672,121.1046,239.011,-1.4682e-05,-5.22e-06,0.0,0 STARLINK-5173,1 54059U 22136J   23237.99354671 -.00000522  00000-0 -14682-4 0  9994,2 54059  53.2179 184.2672 0001673 121.1046 239.0110 15.08842346 47428,6917.873,95.437,540.896,538.581,0.0
54059.0,STARLINK-5173,PAYLOAD,2023-08-26 06:12:14,15.08841646,0.0001517,53.218,183.075,97.1988,262.9176,-8.2639e-06,-4.2e-06,0.0,0 STARLINK-5173,1 54059U 22136J   23238.25850416 -.00000420  00000-0 -82639-5 0  9997,2 54059  53.2180 183.0750 0001517  97.1988 262.9176 15.08841646 46987,6917.875,95.437,540.79,538.691,0.0
54059.0,STARLINK-5173,PAYLOAD,2023-08-27 01:16:52,15.08843227,0.000158,53.2173,179.5085,120.0119,240.1031,-0.00011452,-2.11e-05,0.0,0 STARLINK-5173,1 54059U 22136J   23239.05338864 -.00002110  00000-0 -11452-3 0  9995,2 54059  53.2173 179.5085 0001580 120.0119 240.1031 15.08843227 47584,6917.871,95.437,540.829,538.643,0.0
54059.0,STARLINK-5173,PAYLOAD,2023-08-27 06:03:02,15.08842298,0.0001654,53.2176,178.6169,121.0846,239.0309,-0.00011278,-2.083e-05,0.0,0 STARLINK-5173,1 54059U 22136J   23239.25210888 -.00002083  00000-0 -11278-3 0  9997,2 54059  53.2176 178.6169 0001654 121.0846 239.0309 15.08842298 47133,6917.873,95.437,540.883,538.594,0.0
54059.0,STARLINK-5173,PAYLOAD,2023-08-28 02:43:03,15.08838844,0.0001239,53.2166,174.7551,91.4054,268.708,-1.2442e-05,-4.86e-06,0.0,0 STARLINK-5173,1 54059U 22136J   23240.11323092 -.00000486  00000-0 -12442-4 0  9996,2 54059  53.2166 174.7551 0001239  91.4054 268.7080 15.08838844 47748,6917.884,95.438,540.606,538.892,0.0
54059.0,STARLINK-5173,PAYLOAD,2023-08-28 12:15:21,15.08839758,0.0001329,53.2169,172.9703,81.6993,278.415,4.8391e-06,-2.11e-06,0.0,0 STARLINK-5173,1 54059U 22136J   23240.51067073 -.00000211  00000-0  48391-5 0  9992,2 54059  53.2169 172.9703 0001329  81.6993 278.4150 15.08839758 47328,6917.881,95.438,540.666,538.827,0.0
54059.0,STARLINK-5173,PAYLOAD,2023-08-29 05:44:36,15.08841127,0.00013,53.2168,169.7,92.0946,268.0195,6.2296e-05,7.04e-06,0.0,0 STARLINK-5173,1 54059U 22136J   23241.23931063  .00000704  00000-0  62296-4 0  9996,2 54059  53.2168 169.7000 0001300  92.0946 268.0195 15.08841127 47916,6917.877,95.437,540.641,538.843,0.0
54059.0,STARLINK-5173,PAYLOAD,2023-08-29 12:06:09,15.08834706,0.0001169,53.2156,168.5098,96.5344,263.5781,1.2404e-05,-9e-07,0.0,0 STARLINK-5173,1 54059U 22136J   23241.50427645 -.00000090  00000-0  12404-4 0  9997,2 54059  53.2156 168.5098 0001169  96.5344 263.5781 15.08834706 47951,6917.897,95.438,540.57,538.953,0.0
54059.0,STARLINK-5173,PAYLOAD,2023-08-30 11:56:56,15.08838237,0.0001487,53.2175,164.0499,88.5324,271.5838,3.0641e-05,2e-06,0.0,0 STARLINK-5173,1 54059U 22136J   23242.49787931  .00000200  00000-0  30641-4 0  9998,2 54059  53.2175 164.0499 0001487  88.5324 271.5838 15.08838237 47629,6917.886,95.438,540.779,538.722,0.0
54059.0,STARLINK-5173,PAYLOAD,2023-08-31 03:50:48,15.08839507,0.0001501,53.2172,161.0762,90.7788,269.3376,-3.7165e-06,-3.47e-06,0.0,0 STARLINK-5173,1 54059U 22136J   23243.16028116 -.00000347  00000-0 -37165-5 0  9999,2 54059  53.2172 161.0762 0001501  90.7788 269.3376 15.08839507 48200,6917.882,95.438,540.785,538.709,0.0
54059.0,STARLINK-5173,PAYLOAD,2023-09-01 00:30:49,15.08819856,0.0001376,53.2172,157.2105,97.9912,262.1236,0.00025213,3.725e-05,0.0,0 STARLINK-5173,1 54059U 22136J   23244.02140899  .00003725  00000-0  25213-3 0  9998,2 54059  53.2172 157.2105 0001376  97.9912 262.1236 15.08819856 48331,6917.942,95.439,540.759,538.855,0.0
54059.0,STARLINK-5173,PAYLOAD,2023-09-01 11:38:31,15.08841125,0.0001542,53.2178,155.1284,91.1284,268.9885,4.1068e-05,3.66e-06,0.0,0 STARLINK-5173,1 54059U 22136J   23244.48508121  .00000366  00000-0  41068-4 0  9999,2 54059  53.2178 155.1284 0001542  91.1284 268.9885 15.08841125 48401,6917.877,95.437,540.809,538.675,0.0
